{
  "norad_id": 62044,
  "name": "STARLINK-32577",
  "history": [
    {
      "epoch": "2026-03-28T15:38:20.718816Z",
      "apogee_km": 484.4822779158694,
      "perigee_km": 481.4648987013434,
      "latitude_deg": -3.4387139666206526e-06,
      "longitude_deg": 95.67265755903082,
      "height_km": 482.9552453292258,
      "semi_major_axis_km": 6861.110588308607,
      "eccentricity": 0.00021989,
      "inclination_deg": 43.0045,
      "raan_deg": 156.328,
      "arg_perigee_deg": 262.2334,
      "mean_anomaly_deg": 97.8268,
      "mean_motion_rev_day": 15.27605217
    }
  ]
}